{
    "links": {
        "self": "http://www.neowsapp.com/rest/v1/neo/3158121?api_key=iIulBulltgU6a56xZRHN4H3l9WmuAYTsLGpBGhQ2"
    },
    "id": "3158121",
    "neo_reference_id": "3158121",
    "name": "(2003 QA30)",
    "designation": "2003 QA30",
    "nasa_jpl_url": "http://ssd.jpl.nasa.gov/sbdb.cgi?sstr=3158121",
    "absolute_magnitude_h": 21.8,
    "estimated_diameter": {
        "kilometers": {
            "estimated_diameter_min": 0.1160259082,
            "estimated_diameter_max": 0.2594418179
        },
        "meters": {
            "estimated_diameter_min": 116.0259082094,
            "estimated_diameter_max": 259.4418179074
        },
        "miles": {
            "estimated_diameter_min": 0.0720951346,
            "estimated_diameter_max": 0.1612096218
        },
        "feet": {
            "estimated_diameter_min": 380.6624406898,
            "estimated_diameter_max": 851.1870938635
        }
    },
    "is_potentially_hazardous_asteroid": false,
    "close_approach_data": [
        {
            "close_approach_date": "2003-07-31",
            "close_approach_date_full": "2003-Jul-31 15:34",
            "epoch_date_close_approach": 1059665640000,
            "relative_velocity": {
                "kilometers_per_second": "7.7334801852",
                "kilometers_per_hour": "27840.5286665505",
                "miles_per_hour": "17299.0218261686"
            },
            "miss_distance": {
                "astronomical": "0.1137756035",
                "lunar": "44.2587097615",
                "kilometers": "17020587.941564545",
                "miles": "10576102.926478921"
            },
            "orbiting_body": "Earth"
        }
    ],
    "orbital_data": {
        "orbit_id": "17",
        "orbit_determination_date": "2017-04-06 09:13:56",
        "first_observation_date": "2003-08-24",
        "last_observation_date": "2003-09-28",
        "data_arc_in_days": 35,
        "observations_used": 54,
        "orbit_uncertainty": "7",
        "minimum_orbit_intersection": ".104695",
        "jupiter_tisserand_invariant": "3.326",
        "epoch_osculation": "2459000.5",
        "eccentricity": ".5428692653905832",
        "semi_major_axis": "2.352900734649658",
        "inclination": "9.174050435538858",
        "ascending_node_longitude": "157.8190421404294",
        "orbital_period": "1318.268378951076",
        "perihelion_distance": "1.075583241293435",
        "perihelion_argument": "138.6243120329765",
        "aphelion_distance": "3.630218228005882",
        "perihelion_time": "2459429.765506623354",
        "mean_anomaly": "242.7738077830792",
        "mean_motion": ".2730855156265267",
        "equinox": "J2000",
        "orbit_class": {
            "orbit_class_type": "AMO",
            "orbit_class_description": "Near-Earth asteroid orbits similar to that of 1221 Amor",
            "orbit_class_range": "1.017 AU < q (perihelion) < 1.3 AU"
        }
    },
    "is_sentry_object": false
}